H1 CPF  1  DGF 2022 03 01 13  5601 larets     NONE      
H2   304206 5557    27944 2022 03 01 00 00 00 2022 03 08 00 00 00    30 1 1  0 0 0
H5  0.0650
H9
10 0 59639   7200.000000  0      -6503109.391       -476761.024       2712805.976
10 0 59639   7230.000000  0      -6588652.043       -433677.719       2505847.381
10 0 59639   7260.000000  0      -6667323.349       -389795.404       2296328.965
10 0 59639   7290.000000  0      -6739039.408       -345188.776       2084464.480
10 0 59639   7320.000000  0      -6803723.740       -299933.626       1870470.148
10 0 59639   7350.000000  0      -6861307.382       -254106.737       1654564.429
10 0 59639   7380.000000  0      -6911728.967       -207785.768       1436967.795
10 0 59639   7410.000000  0      -6954934.793       -161049.141       1217902.502
10 0 59639   7440.000000  0      -6990878.890       -113975.927        997592.354
10 0 59639   7470.000000  0      -7019523.069        -66645.731        776262.469
10 0 59639   7500.000000  0      -7040836.972        -19138.577        554139.042
10 0 59639   7530.000000  0      -7054798.104         28465.212        331449.108
10 0 59639   7560.000000  0      -7061391.862         76085.129        108420.299
10 0 59639   7590.000000  0      -7060611.550        123640.606       -114719.392
10 0 59639   7620.000000  0      -7052458.388        171051.125       -337741.855
10 0 59639   7650.000000  0      -7036941.507        218236.342       -560419.104
10 0 59639   7680.000000  0      -7014077.937        265116.200       -782523.517
10 0 59639   7710.000000  0      -6983892.588        311611.048      -1003828.072
10 0 59639   7740.000000  0      -6946418.216        357641.758      -1224106.589
10 0 59639   7770.000000  0      -6901695.388        403129.839      -1443133.960
10 0 59639   7800.000000  0      -6849772.436        447997.550      -1660686.389
10 0 59639   7830.000000  0      -6790705.406        492168.019      -1876541.620
10 0 59639   7860.000000  0      -6724557.992        535565.352      -2090479.179
10 0 59639   7890.000000  0      -6651401.468        578114.748      -2302280.605
10 0 59639   7920.000000  0      -6571314.600        619742.603      -2511729.687
10 0 59639   7950.000000  0      -6484383.554        660376.625      -2718612.685
10 0 59639   7980.000000  0      -6390701.787        699945.937      -2922718.558
10 0 59639   8010.000000  0      -6290369.943        738381.184      -3123839.181
10 0 59639   8040.000000  0      -6183495.725        775614.628      -3321769.556
10 0 59639   8070.000000  0      -6070193.780        811580.258      -3516308.020
10 0 59639   8100.000000  0      -5950585.563        846213.875      -3707256.457
10 0 59639   8130.000000  0      -5824799.197        879453.195      -3894420.496
10 0 59639   8160.000000  0      -5692969.327        911237.939      -4077609.711
10 0 59639   8190.000000  0      -5555236.966        941509.920      -4256637.816
10 0 59639   8220.000000  0      -5411749.331        970213.128      -4431322.850
10 0 59639   8250.000000  0      -5262659.676        997293.816      -4601487.359
10 0 59639   8280.000000  0      -5108127.121       1022700.575      -4766958.578
10 0 59639   8310.000000  0      -4948316.468       1046384.411      -4927568.594
10 0 59639   8340.000000  0      -4783398.019       1068298.819      -5083154.519
10 0 59639   8370.000000  0      -4613547.386       1088399.853      -5233558.645
10 0 59639   8400.000000  0      -4438945.296       1106646.189      -5378628.599
10 0 59639   8430.000000  0      -4259777.389       1122999.191      -5518217.495
10 0 59639   8460.000000  0      -4076234.019       1137422.963      -5652184.072
10 0 59639   8490.000000  0      -3888510.041       1149884.407      -5780392.838
10 0 59639   8520.000000  0      -3696804.593       1160353.274      -5902714.193
10 0 59639   8550.000000  0      -3501320.886       1168802.204      -6019024.555
10 0 59639   8580.000000  0      -3302265.981       1175206.776      -6129206.475
10 0 59639   8610.000000  0      -3099850.568       1179545.538      -6233148.745
10 0 59639   8640.000000  0      -2894288.743       1181800.055      -6330746.514
10 0 59639   8670.000000  0      -2685797.776       1181954.929      -6421901.380
10 0 59639   8700.000000  0      -2474597.875       1179997.839      -6506521.490
10 0 59639   8730.000000  0      -2260911.949       1175919.556      -6584521.616
10 0 59639   8760.000000  0      -2044965.374       1169713.964      -6655823.237
10 0 59639   8790.000000  0      -1826985.755       1161378.078      -6720354.606
10 0 59639   8820.000000  0      -1607202.686       1150912.048      -6778050.814
10 0 59639   8850.000000  0      -1385847.515       1138319.172      -6828853.857
10 0 59639   8880.000000  0      -1163153.097       1123605.896      -6872712.680
10 0 59639   8910.000000  0       -939353.550       1106781.813      -6909583.231
10 0 59639   8940.000000  0       -714684.016       1087859.658      -6939428.491
10 0 59639   8970.000000  0       -489380.419       1066855.303      -6962218.511
10 0 59639   9000.000000  0       -263679.219       1043787.739      -6977930.441
10 0 59639   9030.000000  0        -37817.175       1018679.063      -6986548.555
10 0 59639   9060.000000  0        187968.905        991554.456      -6988064.268
10 0 59639   9090.000000  0        413442.410        962442.155      -6982476.148
10 0 59639   9120.000000  0        638367.177        931373.429      -6969789.922
10 0 59639   9150.000000  0        862507.739        898382.539      -6950018.463
10 0 59639   9180.000000  0       1085629.570        863506.709      -6923181.778
10 0 59639   9210.000000  0       1307499.322        826786.078      -6889306.985
10 0 59639   9240.000000  0       1527885.071        788263.657      -6848428.290
10 0 59639   9270.000000  0       1746556.552        747985.280      -6800586.952
10 0 59639   9300.000000  0       1963285.402        705999.551      -6745831.253
10 0 59639   9330.000000  0       2177845.392        662357.789      -6684216.449
10 0 59639   9360.000000  0       2390012.675        617113.971      -6615804.717
10 0 59639   9390.000000  0       2599566.008        570324.665      -6540665.099
10 0 59639   9420.000000  0       2806286.993        522048.968      -6458873.431
10 0 59639   9450.000000  0       3009960.293        472348.429      -6370512.271
10 0 59639   9480.000000  0       3210373.860        421286.977      -6275670.826
10 0 59639   9510.000000  0       3407319.157        368930.840      -6174444.869
10 0 59639   9540.000000  0       3600591.377        315348.468      -6066936.647
10 0 59639   9570.000000  0       3789989.656        260610.443      -5953254.784
10 0 59639   9600.000000  0       3975317.287        204789.398      -5833514.178
10 0 59639   9630.000000  0       4156381.920        147959.925      -5707835.894
10 0 59639   9660.000000  0       4332995.775         90198.482      -5576347.053
10 0 59639   9690.000000  0       4504975.842         31583.298      -5439180.713
10 0 59639   9720.000000  0       4672144.080        -27805.731      -5296475.732
10 0 59639   9750.000000  0       4834327.605        -87887.138      -5148376.641
10 0 59639   9780.000000  0       4991358.878       -148577.997      -4995033.492
10 0 59639   9810.000000  0       5143075.879       -209794.023      -4836601.720
10 0 59639   9840.000000  0       5289322.288       -271449.686      -4673241.987
10 0 59639   9870.000000  0       5429947.648       -333458.321      -4505120.026
10 0 59639   9900.000000  0       5564807.530       -395732.240      -4332406.474
10 0 59639   9930.000000  0       5693763.691       -458182.851      -4155276.705
10 0 59639   9960.000000  0       5816684.222       -520720.771      -3973910.655
10 0 59639   9990.000000  0       5933443.692       -583255.949      -3788492.644
10 0 59639  10020.000000  0       6043923.286       -645697.787      -3599211.189
10 0 59639  10050.000000  0       6148010.934       -707955.259      -3406258.816
10 0 59639  10080.000000  0       6245601.435       -769937.041      -3209831.865
10 0 59639  10110.000000  0       6336596.574       -831551.627      -3010130.289
10 0 59639  10140.000000  0       6420905.227       -892707.462      -2807357.449
10 0 59639  10170.000000  0       6498443.463       -953313.063      -2601719.909
10 0 59639  10200.000000  0       6569134.634      -1013277.143      -2393427.217
10 0 59639  10230.000000  0       6632909.457      -1072508.743      -2182691.695
10 0 59639  10260.000000  0       6689706.094      -1130917.354      -1969728.216
10 0 59639  10290.000000  0       6739470.211      -1188413.045      -1754753.984
10 0 59639  10320.000000  0       6782155.042      -1244906.590      -1537988.306
10 0 59639  10350.000000  0       6817721.434      -1300309.591      -1319652.364
10 0 59639  10380.000000  0       6846137.887      -1354534.606      -1099968.986
10 0 59639  10410.000000  0       6867380.589      -1407495.270       -879162.415
10 0 59639  10440.000000  0       6881433.436      -1459106.419       -657458.074
10 0 59639  10470.000000  0       6888288.048      -1509284.214       -435082.330
10 0 59639  10500.000000  0       6887943.779      -1557946.261       -212262.255
10 0 59639  10530.000000  0       6880407.705      -1605011.731         10774.614
10 0 59639  10560.000000  0       6865694.617      -1650401.476        233800.515
10 0 59639  10590.000000  0       6843826.991      -1694038.143        456587.698
10 0 59639  10620.000000  0       6814834.958      -1735846.291        678908.669
10 0 59639  10650.000000  0       6778756.262      -1775752.495        900536.422
10 0 59639  10680.000000  0       6735636.212      -1813685.464       1121244.677
10 0 59639  10710.000000  0       6685527.626      -1849576.141       1340808.119
10 0 59639  10740.000000  0       6628490.767      -1883357.812       1559002.637
10 0 59639  10770.000000  0       6564593.263      -1914966.201       1775605.559
99
